{"fetched_at":"2026-03-30T06:02:59Z","count":15439,"tles":[{"name":"STARLINK-35687","line1":"1 66524U 25265J   26087.61655208  .00021345  00000+0  78262-3 0  9991","line2":"2 66524  43.0043 171.4294 0001098 259.0678 101.0050 15.27593249 20008","category":"Starlink"}]}