{
  "norad_id": 66524,
  "name": "STARLINK-35687",
  "history": [
    {
      "epoch": "2026-03-28T14:47:50.099712Z",
      "apogee_km": 483.7627779314471,
      "perigee_km": 482.2560701767252,
      "latitude_deg": -1.091424608366005e-05,
      "longitude_deg": 123.4362022861057,
      "height_km": 482.9291826352876,
      "semi_major_axis_km": 6861.146424054086,
      "eccentricity": 0.0001098,
      "inclination_deg": 43.0043,
      "raan_deg": 171.4294,
      "arg_perigee_deg": 259.0678,
      "mean_anomaly_deg": 101.005,
      "mean_motion_rev_day": 15.27593249
    }
  ]
}